ONEWEB-0275             
1 48993U 21060AC  26200.75609220 -.00002565  00000+0 -67430-2 0  9994
2 48993  87.9078 222.3062 0001600  95.5321 264.5992 13.16605104243848
ONEWEB-0276             
1 48994U 21060AD  26200.78938220 -.00000103  00000+0 -30257-3 0  9997
2 48994  87.9076 222.2987 0001925  94.7858 265.3493 13.16593471243868
ONEWEB-0277             
1 48995U 21060AE  26200.49805896  .00000059  00000+0  11984-3 0  9992
2 48995  87.9070 222.3636 0002126  96.8512 263.2861 13.16595690243815
ONEWEB-0278             
1 48996U 21060AF  26200.10857584 -.00000023  00000+0 -92506-4 0  9995
2 48996  87.9079 222.4336 0002233  88.9610 271.1777 13.16594693243897
ONEWEB-0279             
1 48997U 21060AG  26200.80046528 -.00000030  00000+0 -11260-3 0  9996
2 48997  87.9077 222.2944 0002045 100.1061 260.0301 13.16594254243913
ONEWEB-0280             
1 48998U 21060AH  26200.51150722  .00000072  00000+0  15513-3 0  9996
2 48998  87.9074 222.3556 0002376  92.8347 267.3056 13.16595539243815
ONEWEB-0281             
1 48999U 21060AJ  26200.44104126  .00001040  00000+0  26856-2 0  9993
2 48999  87.9083 222.3653 0001944  92.4863 267.6491 13.16587162243878
ONEWEB-0282             
1 49000U 21060AK  26200.47113690 -.00000046  00000+0 -15438-3 0  9998
2 49000  87.9076 222.3665 0002203  94.8128 265.3255 13.16594900243855
ONEWEB-0283             
1 49001U 21060AL  26200.46005585 -.00000016  00000+0 -74642-4 0  9991
2 49001  87.9077 222.3679 0002061  98.5529 261.5835 13.16594021243867
ONEWEB-0284             
1 49002U 21060AM  26200.75771794  .00000041  00000+0  74670-4 0  9993
2 49002  87.9082 222.3031 0002384  89.7595 270.3809 13.16594390243889
ONEWEB-0285             
1 49075U 21075A   26200.76602604  .00000402  00000+0  10815-2 0  9993
2 49075  87.8977 344.1860 0001723  90.6394 269.4932 13.12446841239488
ONEWEB-0286             
1 49076U 21075B   26200.82432777 -.00000188  00000+0 -55669-3 0  9993
2 49076  87.8969 344.1878 0001723  91.7468 268.3858 13.12443267238846
ONEWEB-0287             
1 49077U 21075C   26200.81920620  .00000047  00000+0  88597-4 0  9991
2 49077  87.9149 359.3741 0001748  80.4994 279.6335 13.17648346237924
ONEWEB-0288             
1 49078U 21075D   26200.80074280 -.00000226  00000+0 -66454-3 0  9991
2 49078  87.8975 344.1718 0001874  89.6767 270.4577 13.12441380239468
ONEWEB-0289             
1 49079U 21075E   26200.85801361  .00000040  00000+0  68670-4 0  9990
2 49079  87.9154 359.3850 0002293  94.8795 265.2598 13.17649904238505
ONEWEB-0290             
1 49080U 21075F   26200.83101124 -.00002041  00000+0 -52913-2 0  9996
2 49080  87.9160 359.3627 0002236  96.8032 263.3354 13.17657544237911
