{"fetched_at":"2026-07-20T07:40:22.620Z","source":"https://celestrak.org/NORAD/elements/gp.php?GROUP=oneweb&FORMAT=JSON","constellation":"oneweb","records":[{"OBJECT_NAME":"ONEWEB-0275","OBJECT_ID":"2021-060AC","EPOCH":"2026-07-19T18:08:46.366080","CLASSIFICATION_TYPE":"U","MEAN_MOTION":13.16605104,"ECCENTRICITY":0.00016,"INCLINATION":87.9078,"RA_OF_ASC_NODE":222.3062,"ARG_OF_PERICENTER":95.5321,"MEAN_ANOMALY":264.5992,"EPHEMERIS_TYPE":0,"NORAD_CAT_ID":48993,"ELEMENT_SET_NO":999,"REV_AT_EPOCH":24384,"BSTAR":-0.006743,"MEAN_MOTION_DOT":-0.00002565,"MEAN_MOTION_DDOT":0},{"OBJECT_NAME":"ONEWEB-0276","OBJECT_ID":"2021-060AD","EPOCH":"2026-07-19T18:56:42.622080","CLASSIFICATION_TYPE":"U","MEAN_MOTION":13.16593471,"ECCENTRICITY":0.0001925,"INCLINATION":87.9076,"RA_OF_ASC_NODE":222.2987,"ARG_OF_PERICENTER":94.7858,"MEAN_ANOMALY":265.3493,"EPHEMERIS_TYPE":0,"NORAD_CAT_ID":48994,"ELEMENT_SET_NO":999,"REV_AT_EPOCH":24386,"BSTAR":-0.00030257,"MEAN_MOTION_DOT":-0.00000103,"MEAN_MOTION_DDOT":0},{"OBJECT_NAME":"ONEWEB-0277","OBJECT_ID":"2021-060AE","EPOCH":"2026-07-19T11:57:12.294144","CLASSIFICATION_TYPE":"U","MEAN_MOTION":13.1659569,"ECCENTRICITY":0.00021269,"INCLINATION":87.907,"RA_OF_ASC_NODE":222.3636,"ARG_OF_PERICENTER":96.8512,"MEAN_ANOMALY":263.2861,"EPHEMERIS_TYPE":0,"NORAD_CAT_ID":48995,"ELEMENT_SET_NO":999,"REV_AT_EPOCH":24381,"BSTAR":0.00011984056,"MEAN_MOTION_DOT":5.9e-7,"MEAN_MOTION_DDOT":0},{"OBJECT_NAME":"ONEWEB-0278","OBJECT_ID":"2021-060AF","EPOCH":"2026-07-19T02:36:20.952576","CLASSIFICATION_TYPE":"U","MEAN_MOTION":13.16594693,"ECCENTRICITY":0.00022338,"INCLINATION":87.9079,"RA_OF_ASC_NODE":222.4336,"ARG_OF_PERICENTER":88.961,"MEAN_ANOMALY":271.1777,"EPHEMERIS_TYPE":0,"NORAD_CAT_ID":48996,"ELEMENT_SET_NO":999,"REV_AT_EPOCH":24389,"BSTAR":-0.000092505945,"MEAN_MOTION_DOT":-2.3e-7,"MEAN_MOTION_DDOT":0},{"OBJECT_NAME":"ONEWEB-0279","OBJECT_ID":"2021-060AG","EPOCH":"2026-07-19T19:12:40.200192","CLASSIFICATION_TYPE":"U","MEAN_MOTION":13.16594254,"ECCENTRICITY":0.0002045,"INCLINATION":87.9077,"RA_OF_ASC_NODE":222.2944,"ARG_OF_PERICENTER":100.1061,"MEAN_ANOMALY":260.0301,"EPHEMERIS_TYPE":0,"NORAD_CAT_ID":48997,"ELEMENT_SET_NO":999,"REV_AT_EPOCH":24391,"BSTAR":-0.0001126,"MEAN_MOTION_DOT":-3e-7,"MEAN_MOTION_DDOT":0},{"OBJECT_NAME":"ONEWEB-0280","OBJECT_ID":"2021-060AH","EPOCH":"2026-07-19T12:16:34.223808","CLASSIFICATION_TYPE":"U","MEAN_MOTION":13.16595539,"ECCENTRICITY":0.0002376,"INCLINATION":87.9074,"RA_OF_ASC_NODE":222.3556,"ARG_OF_PERICENTER":92.8347,"MEAN_ANOMALY":267.3056,"EPHEMERIS_TYPE":0,"NORAD_CAT_ID":48998,"ELEMENT_SET_NO":999,"REV_AT_EPOCH":24381,"BSTAR":0.00015512815,"MEAN_MOTION_DOT":7.2e-7,"MEAN_MOTION_DDOT":0},{"OBJECT_NAME":"ONEWEB-0281","OBJECT_ID":"2021-060AJ","EPOCH":"2026-07-19T10:35:05.964864","CLASSIFICATION_TYPE":"U","MEAN_MOTION":13.16587162,"ECCENTRICITY":0.00019443,"INCLINATION":87.9083,"RA_OF_ASC_NODE":222.3653,"ARG_OF_PERICENTER":92.4863,"MEAN_ANOMALY":267.6491,"EPHEMERIS_TYPE":0,"NORAD_CAT_ID":48999,"ELEMENT_SET_NO":999,"REV_AT_EPOCH":24387,"BSTAR":0.0026856123,"MEAN_MOTION_DOT":0.0000104,"MEAN_MOTION_DDOT":0},{"OBJECT_NAME":"ONEWEB-0282","OBJECT_ID":"2021-060AK","EPOCH":"2026-07-19T11:18:26.228160","CLASSIFICATION_TYPE":"U","MEAN_MOTION":13.165949,"ECCENTRICITY":0.00022033,"INCLINATION":87.9076,"RA_OF_ASC_NODE":222.3665,"ARG_OF_PERICENTER":94.8128,"MEAN_ANOMALY":265.3255,"EPHEMERIS_TYPE":0,"NORAD_CAT_ID":49000,"ELEMENT_SET_NO":999,"REV_AT_EPOCH":24385,"BSTAR":-0.00015438328,"MEAN_MOTION_DOT":-4.6e-7,"MEAN_MOTION_DDOT":0},{"OBJECT_NAME":"ONEWEB-0283","OBJECT_ID":"2021-060AL","EPOCH":"2026-07-19T11:02:28.825440","CLASSIFICATION_TYPE":"U","MEAN_MOTION":13.16594021,"ECCENTRICITY":0.00020617,"INCLINATION":87.9077,"RA_OF_ASC_NODE":222.3679,"ARG_OF_PERICENTER":98.5529,"MEAN_ANOMALY":261.5835,"EPHEMERIS_TYPE":0,"NORAD_CAT_ID":49001,"ELEMENT_SET_NO":999,"REV_AT_EPOCH":24386,"BSTAR":-0.000074642459,"MEAN_MOTION_DOT":-1.6e-7,"MEAN_MOTION_DDOT":0},{"OBJECT_NAME":"ONEWEB-0284","OBJECT_ID":"2021-060AM","EPOCH":"2026-07-19T18:11:06.830016","CLASSIFICATION_TYPE":"U","MEAN_MOTION":13.1659439,"ECCENTRICITY":0.0002384,"INCLINATION":87.9082,"RA_OF_ASC_NODE":222.3031,"ARG_OF_PERICENTER":89.7595,"MEAN_ANOMALY":270.3809,"EPHEMERIS_TYPE":0,"NORAD_CAT_ID":49002,"ELEMENT_SET_NO":999,"REV_AT_EPOCH":24388,"BSTAR":0.00007467,"MEAN_MOTION_DOT":4.1e-7,"MEAN_MOTION_DDOT":0},{"OBJECT_NAME":"ONEWEB-0285","OBJECT_ID":"2021-075A","EPOCH":"2026-07-19T18:23:04.649856","CLASSIFICATION_TYPE":"U","MEAN_MOTION":13.12446841,"ECCENTRICITY":0.0001723,"INCLINATION":87.8977,"RA_OF_ASC_NODE":344.186,"ARG_OF_PERICENTER":90.6394,"MEAN_ANOMALY":269.4932,"EPHEMERIS_TYPE":0,"NORAD_CAT_ID":49075,"ELEMENT_SET_NO":999,"REV_AT_EPOCH":23948,"BSTAR":0.0010815,"MEAN_MOTION_DOT":0.00000402,"MEAN_MOTION_DDOT":0},{"OBJECT_NAME":"ONEWEB-0286","OBJECT_ID":"2021-075B","EPOCH":"2026-07-19T19:47:01.919328","CLASSIFICATION_TYPE":"U","MEAN_MOTION":13.12443267,"ECCENTRICITY":0.0001723,"INCLINATION":87.8969,"RA_OF_ASC_NODE":344.1878,"ARG_OF_PERICENTER":91.7468,"MEAN_ANOMALY":268.3858,"EPHEMERIS_TYPE":0,"NORAD_CAT_ID":49076,"ELEMENT_SET_NO":999,"REV_AT_EPOCH":23884,"BSTAR":-0.00055669,"MEAN_MOTION_DOT":-0.00000188,"MEAN_MOTION_DDOT":0},{"OBJECT_NAME":"ONEWEB-0287","OBJECT_ID":"2021-075C","EPOCH":"2026-07-19T19:39:39.415680","CLASSIFICATION_TYPE":"U","MEAN_MOTION":13.17648346,"ECCENTRICITY":0.0001748,"INCLINATION":87.9149,"RA_OF_ASC_NODE":359.3741,"ARG_OF_PERICENTER":80.4994,"MEAN_ANOMALY":279.6335,"EPHEMERIS_TYPE":0,"NORAD_CAT_ID":49077,"ELEMENT_SET_NO":999,"REV_AT_EPOCH":23792,"BSTAR":0.000088597,"MEAN_MOTION_DOT":4.7e-7,"MEAN_MOTION_DDOT":0},{"OBJECT_NAME":"ONEWEB-0288","OBJECT_ID":"2021-075D","EPOCH":"2026-07-19T19:13:04.177920","CLASSIFICATION_TYPE":"U","MEAN_MOTION":13.1244138,"ECCENTRICITY":0.0001874,"INCLINATION":87.8975,"RA_OF_ASC_NODE":344.1718,"ARG_OF_PERICENTER":89.6767,"MEAN_ANOMALY":270.4577,"EPHEMERIS_TYPE":0,"NORAD_CAT_ID":49078,"ELEMENT_SET_NO":999,"REV_AT_EPOCH":23946,"BSTAR":-0.00066454,"MEAN_MOTION_DOT":-0.00000226,"MEAN_MOTION_DDOT":0},{"OBJECT_NAME":"ONEWEB-0289","OBJECT_ID":"2021-075E","EPOCH":"2026-07-19T20:35:32.375904","CLASSIFICATION_TYPE":"U","MEAN_MOTION":13.17649904,"ECCENTRICITY":0.0002293,"INCLINATION":87.9154,"RA_OF_ASC_NODE":359.385,"ARG_OF_PERICENTER":94.8795,"MEAN_ANOMALY":265.2598,"EPHEMERIS_TYPE":0,"NORAD_CAT_ID":49079,"ELEMENT_SET_NO":999,"REV_AT_EPOCH":23850,"BSTAR":0.00006867,"MEAN_MOTION_DOT":4e-7,"MEAN_MOTION_DDOT":0},{"OBJECT_NAME":"ONEWEB-0290","OBJECT_ID":"2021-075F","EPOCH":"2026-07-19T19:56:39.371136","CLASSIFICATION_TYPE":"U","MEAN_MOTION":13.17657544,"ECCENTRICITY":0.0002236,"INCLINATION":87.916,"RA_OF_ASC_NODE":359.3627,"ARG_OF_PERICENTER":96.8032,"MEAN_ANOMALY":263.3354,"EPHEMERIS_TYPE":0,"NORAD_CAT_ID":49080,"ELEMENT_SET_NO":999,"REV_AT_EPOCH":23791,"BSTAR":-0.0052913,"MEAN_MOTION_DOT":-0.00002041,"MEAN_MOTION_DDOT":0}]}
